nombre,ciudad,giro,horario,direccion,latitud,longitud
MAZDA,Metepec,AGENCIA AUTOMOTRIZ,06:00 A 23:00 HORAS DE LUNES A DOMINGO,BENITO JUÁREZ # 1435 NTE. HÍPICO,19.269666,-99.629152
AUTOMOTRIZ TOLLOCAN S.A. DE C.V.,Metepec,AGENCIA AUTOMOTRIZ,06:00 A 23:00 HORAS DE LUNES A DOMINGO,PASEO TOLLOCAN KM. 4.8 SAN JERÓNIMO CHICAHUALCO,19.28651,-99.58746
MONARCA CONSULTORES S.A. DE C.V.,Metepec,CENTRO DE VERIFICACIÓN AUTOMOTRIZ,06:00 A 23:00 HORAS DE LUNES A DOMINGO,AV. HERIBERTO ENRÍQUEZ #362 FRACC. REAL SAN JAVIER,19.261801,-99.644293
VERIFICENTRO PILARES S.A. DE C.V.,Metepec,CENTRO DE VERIFICACIÓN AUTOMOTRIZ,06:00 A 23:00 HORAS DE LUNES A DOMINGO,27 DE SEPTIEMBRE # 41 SAN JERÓNIMO CHICAHUALCO,19.277811,-99.594266
VERIFICACIÓN AUTOMOTRIZ,Metepec,CENTRO DE VERIFICACIÓN AUTOMOTRIZ,06:00 A 23:00 HORAS DE LUNES A DOMINGO,CARRETERA TOLUCA-TENANGO # 639 LA PURÍSIMA,19.258127,-99.625703
INSTITUTO ONCOLOGICO MEXIQUENSE S.A. DE C.V.,Metepec,CLÍNICA,24:00 HORAS,AV. BAJA VELOCIDAD # 3001 FRANCISCO I. MADERO,19.286273,-99.578527
CLÍNICA UNIDAD DERMATOLOGICA DRES. SOLIS S.C.,Metepec,CLÍNICA,24:00 HORAS,JOSÉFA ORTIZ DE DOMINGUEZ # 318 BARRIO DE SAN MATEO,19.258951,-99.610587
MULTIMÉDICA METEPEC,Metepec,CLÍNICA,24:00 HORAS,JOSÉFA ORTIZ DE DOMÍNGUEZ # 529-202 BARRIO DE SAN MATEO,19.258981,-99.609665
DENTALIA,Metepec,CLÍNICA,24:00 HORAS,"AV. TECNOLÓGICO  ""PLAZA MIA"" # 1600 SAN SALVADOR TIZATLALLI",19.272279,-99.575482
INSTITUTO DE HUMONOLOGíA   CENTRO DE YOGA,Metepec,CLÍNICA,24:00 HORAS,GUADALUPE VICTORIA # 227 FRACC. LOS CEDROS,19.263015,-99.626499
CLÍNICA MÉDICA SAN JUAN,Metepec,CLÍNICA,24:00 HORAS,ARMANDO SOTO MZ-8 L-1 JESÚS JIMÉNEZ GALLARDO,19.259964,-99.633708
723 / VENDOME,Metepec,DISCOTECA,17:00 A 02:00 HORAS DE MIERCOLES A SABADO,AV. LIC. BENITO JUÁREZ GARCIA # 723 NTE. BARRIO DE COAXUSTENCO,19.260177,-99.61932
ESTACIONAMIENTO PLAZA MAYOR,Metepec,ESTACIONAMIENTO PÚBLICO,24:00 HORAS,AV. LEONA VICARIO # 386 BARRIO DE COAXUSTENCO,19.261349,-99.617601
ADCONINS S.A DE C.V.,Metepec,ESTACIONAMIENTO PÚBLICO,24:00 HORAS,BOULEVARD TOLUCA METEPEC # 400 GALERÍAS METEPEC,19.257016,-99.621681
PLAZA CITY CENTER,Metepec,ESTACIONAMIENTO PÚBLICO,24:00 HORAS,BOULEVARD TOLUCA METEPEC # 267 LA MICHOACANA,19.2563584,-99.623689
ESTACIONAMIENTO LOS MOLCAJETES,Metepec,ESTACIONAMIENTO PÚBLICO,24:00 HORAS,PEDRO ASCENCIO # 8 BARRIO DE SANTA CRUZ,19.255659,-99.594852
ESTACIONAMIENTO PÚBLICO  METEPEC,Metepec,ESTACIONAMIENTO PÚBLICO,24:00 HORAS,JOSÉFA ORTIZ DE DOMÍNGUEZ # 528 BARRIO DE COAXUSTENCO,19.2589422,-99.6161644
ESTACIONAMIENTOS PUMASA,Metepec,ESTACIONAMIENTO PÚBLICO,24:00 HORAS,AV. TECNOLÓGICO # 1600 SAN SALVADOR TIZATLALLI,19.2722276,-99.5756134
ESTACIONAMIENTO PLAZA DEL ÁNGEL,Metepec,ESTACIONAMIENTO PÚBLICO,24:00 HORAS,LEONA VICARIO     PLAZA DEL ÁNGEL #  801 LA PURÍSIMA,19.261525,-99.6252791
GARDUÑO,Metepec,ESTACIONAMIENTO PÚBLICO,24:00 HORAS,AV. LIC. BENITO JUÁREZ GARCIA # 120 BARRIO DE SANTA CRUZ,19.2686265,-99.6261396
ESTACIONAMIENTO DEL CENTRO,Metepec,ESTACIONAMIENTO PÚBLICO,24:00 HORAS,IGNACIO ALLENDE # 225 BARRIO DE SANTA CRUZ,19.2538589,-99.6072516
ESTACIONAMIENTO MEGA METEPEC,Metepec,ESTACIONAMIENTO PÚBLICO,24:00 HORAS,JUAN PABLO II # 601 BARRIO DE COAXUSTENCO,19.259504,-99.618303
ESTACIONAMIENTO,Metepec,ESTACIONAMIENTO PÚBLICO,24:00 HORAS,PEDRO ASCENCIO # 220 BARRIO DE SANTA CRUZ,19.2551839,-99.6081915
COSTCO DE MÉXICO S.A. DE C.V.,Metepec,ESTACIONAMIENTO PÚBLICO,24:00 HORAS,AV. S.S. JUAN PABLO SEGUNDO # 501  LTE 22 BARRIO DE SAN MATEO,19.2598126,-99.622257
ESTACIONAMIENTO  PLAZA LAS AMÉRICAS,Metepec,ESTACIONAMIENTO PÚBLICO,24:00 HORAS,AV. GUADALUPE VICTORIA # 916 LA PURÍSIMA,19.261261,-99.6266773
ESTACIONAMIENTO,Metepec,ESTACIONAMIENTO PÚBLICO,24:00 HORAS,GUILLERMO PRIETO # 3 BARRIO DEL ESPÍRITU SANTO,19.2508058,-99.6079158
DON NACHO,Metepec,ESTACIONAMIENTO PÚBLICO,24:00 HORAS,PEDRO ASCENCIO # 1023 BARRIO DE SANTA CRUZ,19.2552545,-99.5983272
JOAQUÍN REYES CAJERO,Metepec,ESTACIONAMIENTO PÚBLICO,24:00 HORAS,ALTAMIRANO # 143 BARRIO DEL ESPÍRITU SANTO,19.25479,-99.606807
PLAZA IZAR,Metepec,ESTACIONAMIENTO PÚBLICO,24:00 HORAS,LEONA VICARIO # 936 LA PURÍSIMA,19.2615955,-99.6206339
ESTACIONAMIENTO PLAZA RUBI,Metepec,ESTACIONAMIENTO PÚBLICO,24:00 HORAS,LEONA VICARIO # 501 BARRIO DE COAXUSTENCO,19.2620529,-99.6088459
RANVER S.A. DE C.V.,Metepec,ESTACIONAMIENTO PÚBLICO,24:00 HORAS,PASEO SAN ISIDRO # 906 BARRIO DE SANTA CRUZ,19.2529932,-99.593424
"ESTACIONAMIENTO  ""PLAZA SAN JUAN""",Metepec,ESTACIONAMIENTO PÚBLICO,24:00 HORAS,VIALIDAD TOLUCA TENANGO # 284 LA PURÍSIMA,19.258339,-99.626132
ESTACIONAMIENTO PLAZA LUNA LA ASUNCIÓN,Metepec,ESTACIONAMIENTO PÚBLICO,24:00 HORAS,AV. SOLIDARIAD LAS TORRES # 702 FRACC. LA ASUNCIÓN,19.2741745,-99.5760716
URBANISMO TECNIFICADO S.A. DE C.V.,Metepec,ESTACIONAMIENTO PÚBLICO,24:00 HORAS,MANUEL J. CLOUTHIER # 12 BARRIO DE COAXUSTENCO,19.2787527,-99.5945103
SAN ISIDRO,Metepec,ESTACIONAMIENTO PÚBLICO,24:00 HORAS,PASEO SAN ISIDRO # 13 BARRIO DE SANTA CRUZ,19.2512777,-99.601113
SANTA CRUZ,Metepec,ESTACIONAMIENTO PÚBLICO,24:00 HORAS,5 DE MAYO # 259 BARRIO DE SANTA CRUZ,19.2582599,-99.6038401
"""RC""",Metepec,ESTACIONAMIENTO PÚBLICO,24:00 HORAS,AV. BENITO JUÁREZ # 6 SAN FRANCISCO COAXUSCO,19.2670097,-99.6258192
DON PEPE,Metepec,ESTACIONAMIENTO PÚBLICO,24:00 HORAS,JOSÉ MARIA MORELOS # 14 CABECERA MUNICIPAL,19.253458,-99.6042006
ENERGETICOS TEC S.A. DE C.V.,Metepec,EXPENDIO DE GASOLINA,24:00 HORAS,AV. TECNOLÓGICO # 1131 (ANT. 625) BELLAVISTA,19.278848,-99.574038
OPERADORA INTERGASOLINERAS S.A. DE C.V.,Metepec,EXPENDIO DE GASOLINA,24:00 HORAS,VICENTE GUERRERO # 419 BARRIO DE COAXUSTENCO,19.276593,-99.623672
GASOGON S.A. DE C.V.,Metepec,EXPENDIO DE GASOLINA,24:00 HORAS,LIBRAMIENTO JOSÉ MARÍA MORELOS # 901-A SAN LORENZO COACALCO,19.236544,-99.597506
ESTACION DE SERVICIO BIDASOA S.A. DE C.V.,Metepec,EXPENDIO DE GASOLINA,24:00 HORAS,LEONA VICARIO ESQ. AV. BENITO JUÁREZ # 351-A SAN FRANCISCO COAXUSCO,19.2613793,-99.6195455
SERVICIO TEIXIDO S.A. DE C.V.,Metepec,EXPENDIO DE GASOLINA,24:00 HORAS,AV. SOLIDARIDAD LAS TORRRES # 1500 SAN JERÓNIMO CHICAHUALCO,19.2751694,-99.6036206
ESTACION DE SERVICIO VARVEL S.A DE C.V.,Metepec,EXPENDIO DE GASOLINA,24:00 HORAS,AVENIDA TECNOLÓGICO # 1357 NTE. SAN SALVADOR TIZATLALLI,19.2701056,-99.5773457
SERVICIO VASA S. A. DE C. V.,Metepec,EXPENDIO DE GASOLINA,24:00 HORAS,MIGUEL HIDALGO # 1046 STA. MA. OCOTITLAN,19.2407679,-99.6177406
GRUPO GAS MOCHOA S.A. DE C.V.,Metepec,EXPENDIO DE GASOLINA,24:00 HORAS,VIA TOLUCA METEPEC # 761 XINANTÉCATL,19.2614578,-99.6307042
SERVICIO MIRUSA,Metepec,EXPENDIO DE GASOLINA,24:00 HORAS,AV. TECNOLÓGICO # 208 Y 216 SUR BELLAVISTA,19.266901,-99.575973
SERVICIO GADAD S.A. DE C.V.,Metepec,EXPENDIO DE GASOLINA,24:00 HORAS,VIALIDAD TOLUCA METEPEC KM 5.5 BARRIO DEL ESPÍRITU SANTO,19.2549393,-99.619756
ESTACION DE SERVICIO LA ASUNCIÓN,Metepec,EXPENDIO DE GASOLINA,24:00 HORAS,PASEO INSTITUTO TECNOLÓGICO S/N SAN SALVADOR TIZATLALLI,19.276312,-99.5747816
SERVITRIANGULO,Metepec,EXPENDIO DE GASOLINA,24:00 HORAS,S.S. JUAN PABLO II NTE. ESQ. LÁZARO CARDENAS # 1610 SAN FRANCISCO COAXUSCO,19.2724739,-99.6305863
HOSPITAL MEDICA SAN ISIDRO,Metepec,HOSPITAL,24:00 HORAS,JOSÉFA ORTIZ DE DOMÍNGUEZ # 472 PTE. BARRIO DE SAN MATEO,19.258973,-99.613256
CENTRO MÉDICO DE TOLUCA S.A. DE C.V.,Metepec,HOSPITAL,24:00 HORAS,AV. BENITO JUÁREZ GARCÍA # 341 NTE. BARRIO DE SAN MATEO,19.2621433,-99.5989735
INMOBILIARIA BARAZAS S.A. DE C.V.,Metepec,HOTEL,24:00 HORAS,"CARRETERA TOLUCA - IXTAPAN KM. 5.6    ""LA MURALLA"" # 567 STA. MA. OCOTITLAN",19.2445672,-99.6046676
OPERADORA PLAZA LANCASTER TOLUCA S.A. DE C.V.,Metepec,HOTEL,24:00 HORAS,PASEO TOLLOCAN ESQ. AV. TECNOLÓGICO # 750 FRANCISCO I. MADERO,19.2814839,-99.5732332
OPERADORA HOTELERA CITY CENTER METEPEC S.A. DE C.V.,Metepec,HOTEL,24:00 HORAS,BOULEVARD TOLUCA METEPEC # 267 LA MICHOACANA,19.2563584,-99.623689
"""REAL DE SAN JAVIER""",Metepec,HOTEL,24:00 HORAS,VIALIDAD TOLUCA METEPEC KM. 4 BARRIO DEL ESPÍRITU SANTO,19.251615,-99.614315
METEPEC PLAZA,Metepec,HOTEL,24:00 HORAS,CARRETERA TOLUCA IXTAPAN # 1 SUR BARRIO DE SANTA CRUZ,19.2513491,-99.6149909
QUINTA DEL REY HOTEL S.A. DE C.V.,Metepec,HOTEL,24:00 HORAS,PASEO TOLLOCAN OTE. KM.5 SAN JERÓNIMO CHICAHUALCO,19.286202,-99.580359
HOTEL PASEO,Metepec,HOTEL,24:00 HORAS,PASEO TOLLOCAN KM. 4.8 SAN JERÓNIMO CHICAHUALCO,19.2859056,-99.5869687
BANCO ACTINVER S.A INST. BANCARIA MULTIPLE GRUPO FINANCIERO ACTINVER,Metepec,INSTITUCIÓN BANCARIA,06:00 A 23:00 HORAS DE LUNES A DOMINGO,AV. LEONA VICARIO # 936 LOC. 3 P.B. LA PURÍSIMA,19.2817638,-99.5897461
BANCOPPEL,Metepec,INSTITUCIÓN BANCARIA,06:00 A 23:00 HORAS DE LUNES A DOMINGO,HDA. LA QUEMADA # 500 BARRIO DE SAN MATEO,19.257279,-99.59819
BANCA MIFEL S.A. INSTITUCION  DE BANCA MULTIPLE GRUPO FINANCIERO MIFEL,Metepec,INSTITUCIÓN BANCARIA,06:00 A 23:00 HORAS DE LUNES A DOMINGO,LEONA VICARIO # 386-10-D 11-C BARRIO DE COAXUSTENCO,19.260943,-99.617483
SANTANDER,Metepec,INSTITUCIÓN BANCARIA,06:00 A 23:00 HORAS DE LUNES A DOMINGO,HERIBERTO ENRÍQUEZ # 1048 EX-RANCHO SAN JAVIER,19.262108,-99.64433
SANTANDER,Metepec,INSTITUCIÓN BANCARIA,06:00 A 23:00 HORAS DE LUNES A DOMINGO,AV. BENITO JUÁREZ # 1039 SAN FRANCISCO COAXUSCO,19.2642703,-99.6292717
SANTANDER,Metepec,INSTITUCIÓN BANCARIA,06:00 A 23:00 HORAS DE LUNES A DOMINGO,5 DE MAYO ESQ. NIÑOS HÉROES S/N BARRIO DEL ESPÍRITU SANTO,19.2558546,-99.6167158
SANTANDER,Metepec,INSTITUCIÓN BANCARIA,06:00 A 23:00 HORAS DE LUNES A DOMINGO,LEONA VICARIO # 916 LA PURÍSIMA,19.2595717,-99.6114802
BANCO SANTANDER MEXICO S.A. INSTITUCION DE BANCA MULTIPLE GRUPO FINANCIERO SANTANDER,Metepec,INSTITUCIÓN BANCARIA,06:00 A 23:00 HORAS DE LUNES A DOMINGO,AV. TECNOLÓGICO    MAGNO PLAZA # 1101 BELLAVISTA,19.266025,-99.577315
SANTANDER,Metepec,INSTITUCIÓN BANCARIA,06:00 A 23:00 HORAS DE LUNES A DOMINGO,IGNACIO COMONFORT # 1312  LTE. 2 LA PROVIDENCIA,19.2651413,-99.590562
BBVA BANCOMER S.A.,Metepec,INSTITUCIÓN BANCARIA,06:00 A 23:00 HORAS DE LUNES A DOMINGO,VIALIDAD A METEPEC # 284 LA PURÍSIMA,19.2606039,-99.6076423
HSBC MEXICO S.A. INST. DE BANCA MULTIPLE GPO. FINANCIERO HSBC,Metepec,INSTITUCIÓN BANCARIA,06:00 A 23:00 HORAS DE LUNES A DOMINGO,VIALIDAD METEPEC 284 L-1 LA PURÍSIMA,19.2606039,-99.6076423
BBVA BANCOMER,Metepec,INSTITUCIÓN BANCARIA,06:00 A 23:00 HORAS DE LUNES A DOMINGO,5 DE MAYO ESQ. AV. GUADALUPE VICTORIA # 226 SAN FRANCISCO COAXUSCO,19.2669947,-99.6226842
HSBC MEXICO S.A.,Metepec,INSTITUCIÓN BANCARIA,06:00 A 23:00 HORAS DE LUNES A DOMINGO,AV. TECNOLÓGICO # 2301 (ANT. 1167) FRANCISCO I. MADERO,19.2823265,-99.5733538
BBVA BANCOMER S.A.,Metepec,INSTITUCIÓN BANCARIA,06:00 A 23:00 HORAS DE LUNES A DOMINGO,MANUEL J. CLOUTHIER # 1726 UNID. HAB. LAS MARINAS,19.2722308,-99.5987374
BBVA BANCOMER S.A.,Metepec,INSTITUCIÓN BANCARIA,06:00 A 23:00 HORAS DE LUNES A DOMINGO,AV. PASEO SAN ISIDRO # 318 LOCAL 2 BARRIO DE SANTIAGUITO,19.2529,-99.5939
BANCA AFIRME,Metepec,INSTITUCIÓN BANCARIA,06:00 A 23:00 HORAS DE LUNES A DOMINGO,AV. HACIENDA LA QUEMADA # 500 BARRIO DE SAN MATEO,19.258315,-99.596954
SCOTIABANK INVERLAT S.A,Metepec,INSTITUCIÓN BANCARIA,06:00 A 23:00 HORAS DE LUNES A DOMINGO,AV. LEONA VICARIO # 729 L-1 LA PURÍSIMA,19.257779,-99.6290325
SCOTIABANK INVERLAT S.A.,Metepec,INSTITUCIÓN BANCARIA,06:00 A 23:00 HORAS DE LUNES A DOMINGO,AV. TECNOLÓGICO # 1326 NTE. SAN SALVADOR TIZATLALLI,19.2661743,-99.5648128
BANCO BANBAJIO,Metepec,INSTITUCIÓN BANCARIA,06:00 A 23:00 HORAS DE LUNES A DOMINGO,LEONA VICARIO # 386-2 BARRIO DE COAXUSTENCO,19.260945,-99.617119
SEGUROS INBURSA S.A. GRUPO FINANCIERO INBURSA,Metepec,INSTITUCIÓN BANCARIA,06:00 A 23:00 HORAS DE LUNES A DOMINGO,AV. TECNOLÓGICO # 1600  L-5A2 SAN SALVADOR TIZATLALLI,19.272582,-99.57886
BBVA BANCOMER,Metepec,INSTITUCIÓN BANCARIA,06:00 A 23:00 HORAS DE LUNES A DOMINGO,AV. GUADALUPE VICTORIA # 916-7 LA PURÍSIMA,19.259473,-99.625239
BBA BANCOMER,Metepec,INSTITUCIÓN BANCARIA,06:00 A 23:00 HORAS DE LUNES A DOMINGO,AV. TECNOLÓGICO # 1600 SAN SALVADOR TIZATLALLI,19.2673228,-99.5841368
BANCO WAL MART,Metepec,INSTITUCIÓN BANCARIA,06:00 A 23:00 HORAS DE LUNES A DOMINGO,AV. LEONA VICARIO   (INT. SAM´S CLUB) # 502 LA PURÍSIMA,19.2576362,-99.6177704
BANCO MERCANTIL DEL NORTE,Metepec,INSTITUCIÓN BANCARIA,06:00 A 23:00 HORAS DE LUNES A DOMINGO,BOULEVARD TOLUCA- IXTAPAN # 126 NTE. L-151 BARRIO DE COAXUSTENCO,19.2619973,-99.6189683
BANCO WAL-MART,Metepec,INSTITUCIÓN BANCARIA,06:00 A 23:00 HORAS DE LUNES A DOMINGO,AV. LEONA VICARIO # 502 LA PURÍSIMA,19.2576362,-99.6177704
BANCO WAL-MART,Metepec,INSTITUCIÓN BANCARIA,06:00 A 23:00 HORAS DE LUNES A DOMINGO,AV. PROLONGACIÓN GOBERNADORES # 308 BARRIO DE COAXUSTENCO,19.2684915,-99.59411
BANREGIO,Metepec,INSTITUCIÓN BANCARIA,06:00 A 23:00 HORAS DE LUNES A DOMINGO,AV. BENITO JUÁREZ # 901 LA PURÍSIMA,19.261135,-99.6178276
BANORTE S.A.,Metepec,INSTITUCIÓN BANCARIA,06:00 A 23:00 HORAS DE LUNES A DOMINGO,AV. S.S. JUAN PABLO II # 1201 NORTE SAN FRANCISCO COAXUSCO,19.2621433,-99.6014625
BANORTE S.A.,Metepec,INSTITUCIÓN BANCARIA,06:00 A 23:00 HORAS DE LUNES A DOMINGO,16 DE SEPTIEMBRE S/N L-2 Y 3 SAN JERÓNIMO CHICAHUALCO,19.2730612,-99.5949823
BANORTE,Metepec,INSTITUCIÓN BANCARIA,06:00 A 23:00 HORAS DE LUNES A DOMINGO,CARRETERA TOLUCA TENANGO # 505 L-242526 EX-RANCHO SAN JAVIER,19.2602929,-99.6285314
GRUPO BANORTE,Metepec,INSTITUCIÓN BANCARIA,06:00 A 23:00 HORAS DE LUNES A DOMINGO,AV. TECNOLÓGICO # 1300 LOC. 2 FRANCISCO I. MADERO,19.2685372,-99.5851654
GRUPO BANORTE,Metepec,INSTITUCIÓN BANCARIA,06:00 A 23:00 HORAS DE LUNES A DOMINGO,BULEVARD TOLUCA IXTAPAN # 126 NTE. LOC. 153 LA PURÍSIMA,19.2574013,-99.6234781
BANORTE,Metepec,INSTITUCIÓN BANCARIA,06:00 A 23:00 HORAS DE LUNES A DOMINGO,PASEO SAN ISIDRO # 400 LOCAL 4 BARRIO DE SANTA CRUZ,19.252814,-99.613156
BANAMEX,Metepec,INSTITUCIÓN BANCARIA,06:00 A 23:00 HORAS DE LUNES A DOMINGO,AV. SOLIDARIDAD LAS TORRES # 109  LOCALES 2 3 Y 4 LA PROVIDENCIA,19.27537,-99.607213
"""BANCO NACIONAL DE MEXICO S.A.""",Metepec,INSTITUCIÓN BANCARIA,06:00 A 23:00 HORAS DE LUNES A DOMINGO,MANUEL J. CLOUTHIER # 900 SAN JERÓNIMO CHICAHUALCO,19.283044,-99.594372
BANCO NACIONAL DE MÉXICO S.A.,Metepec,INSTITUCIÓN BANCARIA,06:00 A 23:00 HORAS DE LUNES A DOMINGO,BOULEVARD TOLUCA IXTAPAN # 126 L-146 BARRIO DE COAXUSTENCO,19.2404786,-99.5940978
BANCO NACIONAL DE MÉXICO S.A DE C.V.,Metepec,INSTITUCIÓN BANCARIA,06:00 A 23:00 HORAS DE LUNES A DOMINGO,AV. TECNOLÓGICO # 338 NTE. LLANO GRANDE,19.2594448,-99.5768246
BANAMEX,Metepec,INSTITUCIÓN BANCARIA,06:00 A 23:00 HORAS DE LUNES A DOMINGO,VIALIDAD TOLUCA TENANGO # 533 LA PURÍSIMA,19.26068.,-99.62767
CIBANCO S.A.,Metepec,INSTITUCIÓN BANCARIA,06:00 A 23:00 HORAS DE LUNES A DOMINGO,AV. GUADALUPE VICTORIA # 701 LA PURÍSIMA,19.260776,-99.627063
HSBC MEXICO S.A. INST. DE BANCA MULTIPLE GPO. FINANCIERO HSBC,Metepec,INSTITUCIÓN BANCARIA,06:00 A 23:00 HORAS DE LUNES A DOMINGO,AV. BENITO JUÁREZ # 761 SAN FRANCISCO COAXUSCO,19.26683,-99.62622
BANCO NACIONAL DE MEXICO S. A.,Metepec,INSTITUCIÓN BANCARIA,06:00 A 23:00 HORAS DE LUNES A DOMINGO,PINO SUAREZ SUR # 2400 XINANTÉCATL,19.263626,-99.633081
BANCO NACIONAL DE MÉXICO S. A. DE C. V.,Metepec,INSTITUCIÓN BANCARIA,06:00 A 23:00 HORAS DE LUNES A DOMINGO,AV. BENITO JUÁREZ # 216 L-40 AL 44 FRACC. LAS HACIENDAS,19.2675863,-99.6338003
"""VILLA LOS SAUCES S.A. DE C.V.""",Metepec,MOTEL,24:00 HORAS,AV. TECNOLÓGICO # 1249 FRANCISCO I. MADERO,19.285611,-99.573978
REAL DEL SUR,Metepec,MOTEL,24:00 HORAS,PASEO TOLLOCAN # 446 SAN JERÓNIMO CHICAHUALCO,19.2621433,-99.5989735
EL CORTIJO,Metepec,MOTEL,24:00 HORAS,CARRETERA A  METEPEC KM. 2.5 LA MUNICIPAL,19.2621433,-99.5989735
EL RINCÓN DE LA PIZZA,Metepec,PIZZERÍA,06:00 A 23:00 HORAS DE LUNES A DOMINGO,AV. GOBERNADORES # 206 M-25 L-15 INFONAVIT SAN FRANCISCO,19.2657291,-99.5962048
JEQUES PIZZAS,Metepec,PIZZERÍA,06:00 A 23:00 HORAS DE LUNES A DOMINGO,AV. TECNOLÓGICO # 300 LLANO GRANDE,19.257652,-99.5768655
LALOS,Metepec,PIZZERÍA,06:00 A 23:00 HORAS DE LUNES A DOMINGO,AV. METEPEC # 228 IZCALLI CUAUHTÉMOC I,19.2731671,-99.5886248
CALDERONNI PIZZA,Metepec,PIZZERÍA,06:00 A 23:00 HORAS DE LUNES A DOMINGO,VERACRUZ # 275 SAN GASPAR TLAHUELILPAN,19.2475373,-99.5515286
MEGA PIZZAS,Metepec,PIZZERÍA,06:00 A 23:00 HORAS DE LUNES A DOMINGO,5 DE MAYO ESQ. CALZADA METEPEC S/N SAN JERÓNIMO CHICAHUALCO,19.279179,-99.5930928
PIZZAS GOL,Metepec,PIZZERÍA,06:00 A 23:00 HORAS DE LUNES A DOMINGO,5 DE MAYO # 100 BARRIO DEL ESPÍRITU SANTO,19.252527,-99.604237
UNIKA PIZZA,Metepec,PIZZERÍA,06:00 A 23:00 HORAS DE LUNES A DOMINGO,AV. SOLIDARIDAD LAS TORRES 482 SAN SALVADOR TIZATLALLI,19.276481,-99.588005
DUXELLES,Metepec,RESTAURANTE,06:00 A 03:00 DE LUNES A DOMIMGO,MANUEL DOBLADO # 60 PILARES,19.285036,-99.597687
BURGER KING,Metepec,RESTAURANTE,06:00 A 03:00 DE LUNES A DOMIMGO,BOULEVARD TOLUCA IXTAPAN # 126-501 BARRIO DE COAXUSTENCO,19.2621434,-99.5989735
NUTRI TO GO !,Metepec,RESTAURANTE,06:00 A 03:00 DE LUNES A DOMIMGO,PASEO SAN ISIDRO # 400 BARRIO DE SANTA CRUZ,19.253192,-99.60341
SIMPLEMENTE NATURAL M&C S.A. DE C.V.      100 % NATURAL,Metepec,RESTAURANTE,06:00 A 03:00 DE LUNES A DOMIMGO,LEONA VICARIO # 501  LOCAL  A BARRIO DE COAXUSTENCO,19.26131,-99.613992
HOP-HING,Metepec,RESTAURANTE,06:00 A 03:00 DE LUNES A DOMIMGO,AV. GUADALUPE VICTORIA # 916 L-16 LA PURÍSIMA,19.26199,.-99.620969
KFC,Metepec,RESTAURANTE,06:00 A 03:00 DE LUNES A DOMIMGO,BOULEVARD TOLUCA IXTAPAN # 126 L-508 BARRIO DE COAXUSTENCO,19.2621434,-99.5989735
KFC PABELLON METEPEC,Metepec,RESTAURANTE,06:00 A 03:00 DE LUNES A DOMIMGO,CARRETERA TOLUCA TENANGO # 505 NTE. EX-RANCHO SAN JAVIER,19.260109,-99.629018
PIZZA HUT LA ASUNCION,Metepec,RESTAURANTE,06:00 A 03:00 DE LUNES A DOMIMGO,"AV. SOLIDARIDAD LAS TORRES    "" PLAZA LUNA"" # 702 FRACC. LA ASUNCIÓN",19.277076,-99.574338
KFC LA ASUNCION,Metepec,RESTAURANTE,06:00 A 03:00 DE LUNES A DOMIMGO,AV. SOLIDARIDAD LAS TORRES # 702-A FRACC. LA ASUNCIÓN,19.277076,-99.574338
EL FAROLITO,Metepec,RESTAURANTE,06:00 A 03:00 DE LUNES A DOMIMGO,GUADALUPE VICTORIA # 227 LOC. 1 AL 4 LA PURÍSIMA,19.2621434,-99.5989735
RESTAURANTE LILLE,Metepec,RESTAURANTE,06:00 A 03:00 DE LUNES A DOMIMGO,PLAZUELA DE SAN FRANCISCO # 101 SAN FRANCISCO COAXUSCO,19.2688824,-99.6274981
THE YORKER,Metepec,RESTAURANTE,06:00 A 03:00 DE LUNES A DOMIMGO,AV. LEONA VICARIO # 501  LOC. 21 BARRIO DE COAXUSTENCO,19.260546,-99.613316
EL HUERTO,Metepec,RESTAURANTE,06:00 A 03:00 DE LUNES A DOMIMGO,GUADALUPE VICTORIA # 916  LOC. 2 LA PURÍSIMA,19.260865,-99.625368
McDONALD'S,Metepec,RESTAURANTE,06:00 A 03:00 DE LUNES A DOMIMGO,AV. TECNOLÓGICO # 1342 NTE. FRANCISCO I. MADERO,19.2739221,-99.5855409
MC' DONALDS,Metepec,RESTAURANTE,06:00 A 03:00 DE LUNES A DOMIMGO,BOULEVARD TOLUCA METEPEC # 400   LOCAL 345 BARRIO DE COAXUSTENCO,19.2621434,-99.5989735
IHOP RESTAURANT,Metepec,RESTAURANTE,06:00 A 03:00 DE LUNES A DOMIMGO,GUADALUPE VICTORIA # 701 LOC. 8 AL 15 LA PURÍSIMA,19.2607671,-99.6272303
EL RINCÓN DEL CHEF,Metepec,RESTAURANTE,06:00 A 03:00 DE LUNES A DOMIMGO,HDA. LA QUEMADA # 515 UNID. HAB. SAN JOSÉ LA PILA,19.261093,-99.5867252
RESTAURANTE MI TIERRA,Metepec,RESTAURANTE,06:00 A 03:00 DE LUNES A DOMIMGO,PASEO SAN ISIDRO # 402 BARRIO DEL ESPÍRITU SANTO,19.251868,-99.613155
RESTAURANTE LA LEYENDA,Metepec,RESTAURANTE,06:00 A 03:00 DE LUNES A DOMIMGO,AV. SOLIDARIDAD LAS TORRES # 511 LA PROVIDENCIA,19.2757795,-99.6042774
YO SALUDABLE,Metepec,RESTAURANTE,06:00 A 03:00 DE LUNES A DOMIMGO,HDA. LA QUEMADA # 1268-R SAN SALVADOR TIZATLALLI,19.2629472,-99.5844813
HUNGRY PANDA,Metepec,RESTAURANTE,06:00 A 03:00 DE LUNES A DOMIMGO,AV. SOLIDARIDAD LAS TORRES # 340-F SAN JERÓNIMO CHICAHUALCO,19.276718,-99.580235
MESTIZO RESTAURANTE,Metepec,RESTAURANTE,06:00 A 03:00 DE LUNES A DOMIMGO,ADOLFO LÓPEZ MATEOS # 3800 LÁZARO CÁRDENAS,19.256466,-99.554539
BURGER KING,Metepec,RESTAURANTE,06:00 A 03:00 DE LUNES A DOMIMGO,PLAZA LAS AMERICAS L-64 Z-1-J LA PURÍSIMA,19.2621434,-99.5989735
DOMINO'S PIZZA,Metepec,RESTAURANTE,06:00 A 03:00 DE LUNES A DOMIMGO,LEONA VICARIO # 873 LA PURÍSIMA,19.261272,-99.625543
MCDONALD'S  FIESTAS INFANTILES,Metepec,RESTAURANTE,06:00 A 03:00 DE LUNES A DOMIMGO,CARRETERA TOLUCA - TENANGO # 554 NTE. LA PURÍSIMA,19.2603068,-99.6281548
RESTAURANTE BAR  CASA DIEGO,Metepec,RESTAURANTE BAR,06:00 A 03:00 DE LUNES A DOMIMGO,AV. SOLIDARIDAD LAS TORRES # 170 SAN JERÓNIMO CHICAHUALCO,19.276412,-99.58933
RESTAURANTE-BAR    LOS OLIVOS,Metepec,RESTAURANTE BAR,06:00 A 03:00 DE LUNES A DOMIMGO,VIALIDAD METEPEC  ZACANGO # 900 STA. MA. OCOTITLAN,19.240453,-99.616836
CUEVA AZUL,Metepec,RESTAURANTE BAR,06:00 A 03:00 DE LUNES A DOMIMGO,HACIENDA LA QUEMADA # 377 SAN SALVADOR TIZATLALLI,19.261646,-99.589633
WINGS STOP,Metepec,RESTAURANTE BAR,06:00 A 03:00 DE LUNES A DOMIMGO,AV. LEONA VICARIO # 501  INT. 17 BARRIO DE COAXUSTENCO,19.2621542,-99.6022906
BAREZZITO,Metepec,RESTAURANTE BAR,06:00 A 03:00 DE LUNES A DOMIMGO,BENITO JUÁREZ GARCÍA # 723 BARRIO DE COAXUSTENCO,19.260097,-99.619222
BARRO CAFÉ,Metepec,RESTAURANTE BAR,06:00 A 03:00 DE LUNES A DOMIMGO,JOSÉ VICENTE VILLADA # 39 BARRIO DEL ESPÍRITU SANTO,19.2524854,-99.6050007
GALPON ARGENTINO,Metepec,RESTAURANTE BAR,06:00 A 03:00 DE LUNES A DOMIMGO,BOULEVARD TOLUCA IXTAPAN # 126-157 BARRIO DE COAXUSTENCO,19.259618,-99.621309
TIENDAS DEPARTAMENTALES LIVERPOOL S.A. DE C.V.,Metepec,RESTAURANTE BAR,06:00 A 03:00 DE LUNES A DOMIMGO,BOULEVARD TOLUCA METEPEC # 400 NTE. BARRIO DE COAXUSTENCO,19.260211,-99.620686
POTZOLCALLI,Metepec,RESTAURANTE BAR,06:00 A 03:00 DE LUNES A DOMIMGO,VIA METEPEC # 284 LA PURÍSIMA,19.260211,-99.620686
AY DOLORES,Metepec,RESTAURANTE BAR,06:00 A 03:00 DE LUNES A DOMIMGO,MIGUEL HIDALGO Y COSTILLA # 27 BARRIO DEL ESPÍRITU SANTO,19.251726,-99.605831
SUSHI ITTO,Metepec,RESTAURANTE BAR,06:00 A 03:00 DE LUNES A DOMIMGO,BOULEVARD TOLUCA IXTAPAN # 126-447 NTE. BARRIO DE COAXUSTENCO,19.2621434,-99.5989735
SUSHI ITTO,Metepec,RESTAURANTE BAR,06:00 A 03:00 DE LUNES A DOMIMGO,LEONA VICARIO # 701-A LA PURÍSIMA,19.2621332,-99.6111185
SUSHI ROLL,Metepec,RESTAURANTE BAR,06:00 A 03:00 DE LUNES A DOMIMGO,LEONA VICARIO # 936    LOCALES 8 Y 9 LA PURÍSIMA,19.2623797.,-99.618079
PIOLA PIZZA,Metepec,RESTAURANTE BAR,06:00 A 03:00 DE LUNES A DOMIMGO,AV. TECNLÓGICO # 16000 SAN SALVADOR TIZATLALLI,19.2714139,-99.575469
RESTAURANTE BAR LA UNICA,Metepec,RESTAURANTE BAR,06:00 A 03:00 DE LUNES A DOMIMGO,AV. ESTADO DE MÉXICO S/N CABECERA MUNICIPAL,19.2511614,-99.6044843
ALMACEN PORTEÑO,Metepec,RESTAURANTE BAR,06:00 A 03:00 DE LUNES A DOMIMGO,AV. BENITO JUÁREZ # 1001  LOCAL  1 SAN FRANCISCO COAXUSCO,19.264392,-99.622985
SONORA GRILL PRIME,Metepec,RESTAURANTE BAR,06:00 A 03:00 DE LUNES A DOMIMGO,LEONA VICARIO # 1000 LA PURÍSIMA,19.2617167,-99.6213753
RETRO LIVING LOUNGE,Metepec,RESTAURANTE BAR,06:00 A 03:00 DE LUNES A DOMIMGO,PASEO SAN ISIDRO # 332 BARRIO DE SANTIAGUITO,19.2527583,-99.6019603
RESTAURANTE FISHERS TOLUCA,Metepec,RESTAURANTE BAR,06:00 A 03:00 DE LUNES A DOMIMGO,AV BAJA VELOCIDAD (PASEO TOLLOCAN) # 2011 OTE. SAN JERÓNIMO CHICAHUALCO,19.286153,-99.579388
EL FOGONCITO,Metepec,RESTAURANTE BAR,06:00 A 03:00 DE LUNES A DOMIMGO,AV. TECNOLÓGICO # 1600  LOCAL 28 SAN SALVADOR TIZATLALLI,19.2376717,-99.6422321
MR. JINGLESS,Metepec,RESTAURANTE BAR,06:00 A 03:00 DE LUNES A DOMIMGO,PASEO SAN ISIDRO # 705  LOC. 9 BARRIO DEL ESPÍRITU SANTO,19.2530103,-99.5934483
LA TASKA TABERNA,Metepec,RESTAURANTE BAR,06:00 A 03:00 DE LUNES A DOMIMGO,BOULEVARD TOLUCA METEPEC # 267 LA MICHOACANA,19.254298,-99.62048
LA BARRACA CUBANA,Metepec,RESTAURANTE BAR,06:00 A 03:00 DE LUNES A DOMIMGO,PORFIRIO DÍAZ ESQ. NIÑOS HÉROES #91 L-2 BARRIO DEL ESPÍRITU SANTO,19.174368,-99.566723
LE TORNEE DU CHAT,Metepec,RESTAURANTE BAR,06:00 A 03:00 DE LUNES A DOMIMGO,PRIV. 5 DE MAYO # 930 SAN JERÓNIMO CHICAHUALCO,19.279549,-99.5939505
VERMELHO,Metepec,RESTAURANTE BAR,06:00 A 03:00 DE LUNES A DOMIMGO,BENITO JUÁREZ # 1526   SAN FRANCISCO COAXUSCO,19.27037,-99.629613
EL MAGUEYAL,Metepec,RESTAURANTE BAR,06:00 A 03:00 DE LUNES A DOMIMGO,PASEO SAN ISIDRO # 172  LOC. 3 Y 4 BARRIO DE SANTA CRUZ,19.252337,-99.60753
TORTAS LOCAS HIPOCAMPO,Metepec,RESTAURANTE BAR,06:00 A 03:00 DE LUNES A DOMIMGO,BOULEVARD TOLUCA METEPEC NTE. # 387  PLANTA BAJA LA PURÍSIMA,19.2576039,-99.618688
ROJO JAMAICA,Metepec,RESTAURANTE BAR,06:00 A 03:00 DE LUNES A DOMIMGO,LEONA VICARIO # 398 LA PURÍSIMA,19.2615571,-99.6119584
MC CARTHY¨S IRISH PUB,Metepec,RESTAURANTE BAR,06:00 A 03:00 DE LUNES A DOMIMGO,BENITO JUÁREZ # 907 LA PURÍSIMA,19.262491,-99.621226
EL DIEZ,Metepec,RESTAURANTE BAR,06:00 A 03:00 DE LUNES A DOMIMGO,LEONA VICARIO # 344 BARRIO DE COAXUSTENCO,19.2616135,-99.6118163
RESTAURANTE LA BTK,Metepec,RESTAURANTE BAR,06:00 A 03:00 DE LUNES A DOMIMGO,PASEO SAN ISIDRO # 705  LOC.10 Y 11 BARRIO DEL ESPÍRITU SANTO,19.252056.,-99.611282
LA CHOPERIA,Metepec,RESTAURANTE BAR,06:00 A 03:00 DE LUNES A DOMIMGO,PROLONGACIÓN PINO SUÁREZ # 2402 XINANTÉCATL,19.2633701,-99.6328106
PLAY CITY METEPEC,Metepec,RESTAURANTE BAR,06:00 A 03:00 DE LUNES A DOMIMGO,BLVD. TOLUCA-METEPEC NTE. # 719 (ANT. 505) EX-RANCHO SAN JAVIER,19.2601394,-99.6290126
TEXAS RIBS,Metepec,RESTAURANTE BAR,06:00 A 03:00 DE LUNES A DOMIMGO,BOULEVARD TOLUCA IXTAPAN # 126 L-137 BARRIO DE COAXUSTENCO,19.2588705,-99.620525
BIG BOLA,Metepec,RESTAURANTE BAR,06:00 A 03:00 DE LUNES A DOMIMGO,BOULEVARD TOLUCA IXTAPAN # 126-451 NTE. GALERÍAS METEPEC,19.257775,-99.620322
CLUB ZERO,Metepec,RESTAURANTE BAR,06:00 A 03:00 DE LUNES A DOMIMGO,HIDALGO # 35 BARRIO DEL ESPÍRITU SANTO,19.251546,-99.60587
LA INGRATA,Metepec,RESTAURANTE BAR,06:00 A 03:00 DE LUNES A DOMIMGO,MIGUEL HIDALGO # 100 BARRIO DEL ESPÍRITU SANTO,19.2526431,-99.6056889
100 MONTADITOS,Metepec,RESTAURANTE BAR,06:00 A 03:00 DE LUNES A DOMIMGO,LEONA VICARIO # 386  LOC. 3-C Y E-P BARRIO DE COAXUSTENCO,19.2610202,-99.6172325
SOHO GALLERY BAR,Metepec,RESTAURANTE BAR,06:00 A 03:00 DE LUNES A DOMIMGO,IGNACIO ALLENDE # 36 BARRIO DE SANTA CRUZ,19.25394,-99.60503
E.K.,Metepec,RESTAURANTE BAR,06:00 A 03:00 DE LUNES A DOMIMGO,AV. ESTADO DE MÉXICO # 433 BARRIO DE SANTIAGUITO,19.2500491,-99.6085399
EL VIZZIO,Metepec,RESTAURANTE BAR,06:00 A 03:00 DE LUNES A DOMIMGO,BLVD. TOLUCA METEPEC # 267-B-04 LA MICHOACANA,19.254012,-99.620279
LA CANTRINA,Metepec,RESTAURANTE BAR,06:00 A 03:00 DE LUNES A DOMIMGO,AV. TECNOLÓGICO # 982-B FRACC. LA ASUNCIÓN,19.280078,-99.574166
RESTAURANTE BAR RED SHOT,Metepec,RESTAURANTE BAR,06:00 A 03:00 DE LUNES A DOMIMGO,PASEO SAN ISIDRO # 163 BARRIO DEL ESPÍRITU SANTO,19.2525116,-99.6073028
BACK IN BAR,Metepec,RESTAURANTE BAR,06:00 A 03:00 DE LUNES A DOMIMGO,AV. TECNOLÓGICO # 982-B-II FRACC. LA ASUNCIÓN,19.2803905,-99.5739581
CASA SENZO,Metepec,RESTAURANTE BAR,06:00 A 03:00 DE LUNES A DOMIMGO,AV. COMONFORT # 1039  NTE. LA PROVIDENCIA,19.268128,-99.607277
RESTAURANTE LAS ALITAS,Metepec,RESTAURANTE BAR,06:00 A 03:00 DE LUNES A DOMIMGO,BOULEVARD TOLUCA METEPEC # 400 L-356 BARRIO DE COAXUSTENCO,19.2759982,-99.6091873
TACO INN  MR. JAPANESE,Metepec,RESTAURANTE BAR,06:00 A 03:00 DE LUNES A DOMIMGO,AV. BAJA VELOCIDAD PTE. # 110 FRANCISCO I. MADERO,19.2859613,-99.5712616
RINCÓN ANTIGUO,Metepec,RESTAURANTE BAR,06:00 A 03:00 DE LUNES A DOMIMGO,PASEO SAN ISIDRO # 203 BARRIO DE SANTIAGUITO,19.252701,-99.60194
LA MANSIÓN,Metepec,RESTAURANTE BAR,06:00 A 03:00 DE LUNES A DOMIMGO,GUADALUPE VICTORIA # 701    LOCAL  21 Y 22 LA PURÍSIMA,19.261062,-99.627029
SPORT CITY METEPEC ENTRENNA,Metepec,RESTAURANTE BAR,06:00 A 03:00 DE LUNES A DOMIMGO,BOULEVARD TOLUCA METEPEC # 267 LA MICHOACANA,19.254256,-99.62027
LA SONORA BOTANERA,Metepec,RESTAURANTE BAR,06:00 A 03:00 DE LUNES A DOMIMGO,AV. BENITO JUÁREZ # 935 LA PURÍSIMA,19.263544,-99.622276
FUNDIDORA HOUSE,Metepec,RESTAURANTE BAR,06:00 A 03:00 DE LUNES A DOMIMGO,LEONA VICARIO # 813  LOC.17 BARRIO DE COAXUSTENCO,19.261326,-99.618596
LA TOMATINGA,Metepec,RESTAURANTE BAR,06:00 A 03:00 DE LUNES A DOMIMGO,LEONA VICARIO # 813  LOC. 18 BARRIO DE COAXUSTENCO,19.261316,-99.618435
CENTRAL T,Metepec,RESTAURANTE BAR,06:00 A 03:00 DE LUNES A DOMIMGO,AV. SOLIDARIDAD LAS TORRES # 143-1 SAN JERÓNIMO CHICAHUALCO,19.278288,-99.576781
RESTAURANT CHENDOS BAR,Metepec,RESTAURANTE BAR,06:00 A 03:00 DE LUNES A DOMIMGO,IGNACIO ALLENDE # 37 BARRIO DE SANTA CRUZ,19.253931,-99.605254
EL BIFE TOREADO,Metepec,RESTAURANTE BAR,06:00 A 03:00 DE LUNES A DOMIMGO,JOSÉ MARÍA MORELOS # 401-D CABECERA MUNICIPAL,19.262302,-99.614148
LA VID ARGENTINA  RESTAURANTE BAR,Metepec,RESTAURANTE BAR,06:00 A 03:00 DE LUNES A DOMIMGO,BOULEVARD TOLUCA METEPEC # 267 LA MICHOACANA,19.25422,-99.619711
RESTAURANTES TOKS S.A. DE C.V.,Metepec,RESTAURANTE BAR,06:00 A 03:00 DE LUNES A DOMIMGO,AV BAJA VELOCIDAD # 1201 SAN JERÓNIMO CHICAHUALCO,19.260237,-99.626514
GIARE,Metepec,RESTAURANTE BAR,06:00 A 03:00 DE LUNES A DOMIMGO,JOSÉ VICENTE VILLADA # 45 BARRIO DE SANTIAGUITO,19.252393,-99.605357
THE OLD ENGLAND PUB,Metepec,RESTAURANTE BAR,06:00 A 03:00 DE LUNES A DOMIMGO,VICENTE VILLADA # 27 BARRIO DE SANTIAGUITO,19.252021,-99.603849
LA FINCA DE ADOBE,Metepec,RESTAURANTE BAR,06:00 A 03:00 DE LUNES A DOMIMGO,LEONA VICARIO # 1330 LA PURÍSIMA,19.261311,-99.626369
PAMPA Y TANGO RESTAURANTE ARGENTINO,Metepec,RESTAURANTE BAR,06:00 A 03:00 DE LUNES A DOMIMGO,BOULEVARD TOLUCA IXTAPAN # 126-351 GALERÍAS METEPEC,19.257987,-99.620803
P.F. CHANG'S,Metepec,RESTAURANTE BAR,06:00 A 03:00 DE LUNES A DOMIMGO,BVLD. TOLUCA METEPEC # 400  LOCAL 249 BARRIO DE COAXUSTENCO,19.257947,-99.619923
KING BUFFALO,Metepec,RESTAURANTE BAR,06:00 A 03:00 DE LUNES A DOMIMGO,AV. TECNOLÓGICO # 1600   LOCAL 35 SAN SALVADOR TIZATLALLI,19.27353,-99.574451
RESTAURANTE IZY,Metepec,RESTAURANTE BAR,06:00 A 03:00 DE LUNES A DOMIMGO,LEONA VICARIO # 816  LOC- 1 2 Y 3 BARRIO DE COAXUSTENCO,19.261105,-99.618876
TASKA,Metepec,RESTAURANTE BAR,06:00 A 03:00 DE LUNES A DOMIMGO,AV. SOLIDARIDAD LAS TORRES # 772-11 FRACC. LA ASUNCIÓN,19.277127,-99.571901
CHILI'S GRILL & BAR,Metepec,RESTAURANTE BAR,06:00 A 03:00 DE LUNES A DOMIMGO,LIC. BENITO JUÁREZ # 723 BARRIO DE COAXUSTENCO,19.260981,-99.61934
CANTINA LA 1910,Metepec,RESTAURANTE BAR,06:00 A 03:00 DE LUNES A DOMIMGO,LEONA VICARIO # 386  LOCAL 14 LA PURÍSIMA,19.26115,-99.61732
LA ZAPATA,Metepec,RESTAURANTE BAR,06:00 A 03:00 DE LUNES A DOMIMGO,PASEO SAN ISIDRO # 51 BARRIO DE SANTA CRUZ,19.25262,-99.60475
RESTAURANTE BAR  LALOLA,Metepec,RESTAURANTE BAR,06:00 A 03:00 DE LUNES A DOMIMGO,AV. ESTADO DE MÉXICO # 433 BARRIO DE SANTIAGUITO,19.252031,-99.603852
ITALIANNIS PIZZA,Metepec,RESTAURANTE BAR,06:00 A 03:00 DE LUNES A DOMIMGO,LIC. BENITO JUÁREZ     ( PLAZA LAS FUENTES ) # 913  LOCAL 1 LA PURÍSIMA,19.259497,-99.62127
ST. PAUL'S,Metepec,RESTAURANTE BAR,06:00 A 03:00 DE LUNES A DOMIMGO,LIC. BENITO JUÁREZ # 913  LOCAL 4-5 LA PURÍSIMA,19.262809,-99.621635
FRANK´S,Metepec,RESTAURANTE BAR,06:00 A 03:00 DE LUNES A DOMIMGO,IGNACIO ALLENDE # 130 BARRIO DE SANTA CRUZ,19.253917,-99.60537
RESTAURANTE BAR   LA SELVA,Metepec,RESTAURANTE BAR,06:00 A 03:00 DE LUNES A DOMIMGO,BENITO JUÁREZ # 907-4 LA PURÍSIMA,19.262247,-99.620814
RESTAURANTE BAR CHICHO,Metepec,RESTAURANTE BAR,06:00 A 03:00 DE LUNES A DOMIMGO,5 DE MAYO # 36 CABECERA MUNICIPAL,19.251495,-99.604349
EL TAPANKITO,Metepec,RESTAURANTE BAR,06:00 A 03:00 DE LUNES A DOMIMGO,AV. BENITO JUÁREZ # 226 L-11 SAN FRANCISCO COAXUSCO,19.263755,-99.622506
CHEZ PAUL,Metepec,RESTAURANTE BAR,06:00 A 03:00 DE LUNES A DOMIMGO,DIAGONAL SANTA MARIA # 15 PILARES,19.284157,-99.601577
QUINTA DEL REY HOTEL S.A. DE C.V.,Metepec,RESTAURANTE BAR,06:00 A 03:00 DE LUNES A DOMIMGO,PASEO TOLLOCAN OTE. KM. 5/500 SAN JERÓNIMO CHICAHUALCO,19.286318,-99.580488
""" DAVIS """,Metepec,RESTAURANTE BAR,06:00 A 03:00 DE LUNES A DOMIMGO,PINO SUAREZ # 2410 XINANTÉCATL,19.263512,-99.633258
CAFÉ BAR ROCK CLASSIC,Metepec,RESTAURANTE BAR,06:00 A 03:00 DE LUNES A DOMIMGO,IGNACIO COMONFORT # 109 BARRIO DEL ESPÍRITU SANTO,19.251818,-99.608601
CANTINITA DEL CENTRO,Metepec,RESTAURANTE BAR,06:00 A 03:00 DE LUNES A DOMIMGO,5 DE MAYO # 203 BARRIO DEL ESPÍRITU SANTO,19.257279,-99.60396
MILK,Metepec,RESTAURANTE BAR,06:00 A 03:00 DE LUNES A DOMIMGO,LEONA VICARIO # 873-B LA PURÍSIMA,19.26134,-99.625198
REAL DEL SUR,Metepec,RESTAURANTE BAR C/PISTA DE BAILE,06:00 A 03:00 DE LUNES A DOMIMGO,PASEO TOLLOCAN # 446 SAN JERÓNIMO CHICAHUALCO,19.28641,-99.582638
GRAN MARQUEZ,Metepec,RESTAURANTE BAR C/PISTA DE BAILE,06:00 A 03:00 DE LUNES A DOMIMGO,AV. BAJA VELOCIDAD # 1046 SAN JERÓNIMO CHICAHUALCO,19.286773,-99.592859
LA CABAÑA DE TEHUTLI,Metepec,RESTAURANTE BAR C/PISTA DE BAILE,06:00 A 03:00 DE LUNES A DOMIMGO,CARRETERA TOLUCA TENANGO KM. 7 SAN MIGUEL TOTOCUITLAPILCO,19.242877,-99.552718
RESTAURANTE BAR PARADOR S.A.,Metepec,RESTAURANTE BAR C/PISTA DE BAILE,06:00 A 03:00 DE LUNES A DOMIMGO,PASEO TOLLOCAN KM. 4.8 SAN JERÓNIMO CHICAHUALCO,19.28622,-99.568543
MAMBO CAFÉ,Metepec,RESTAURANTE BAR C/PISTA DE BAILE,06:00 A 03:00 DE LUNES A DOMIMGO,VIALIDAD TOLUCA TENANGO # 102 BARRIO DEL ESPÍRITU SANTO,19.253526,-99.617368
TERRAZA SPORT WINGS,Metepec,RESTAURANTE C/V DE CERVEZA EN LOS ALIMENTOS,06:00 A 03:00 DE LUNES A DOMIMGO,5 DE MAYO # 6   INT. 74 BARRIO DE SANTIAGUITO,19.252128,-99.604264
"RESTAURANTE   "" LA HERENCIA """,Metepec,RESTAURANTE C/V DE CERVEZA EN LOS ALIMENTOS,06:00 A 03:00 DE LUNES A DOMIMGO,NIÑOS HÉROES # 2 BARRIO DEL ESPÍRITU SANTO,19.2517025,-99.6051434
EL GOLPE,Metepec,RESTAURANTE C/V DE CERVEZA EN LOS ALIMENTOS,06:00 A 03:00 DE LUNES A DOMIMGO,VOLCAN CEBORUCO # 26 JUAN FERNÁNDEZ ALBARRÁN,19.2608072,-99.637603
XIBALBA,Metepec,RESTAURANTE C/V DE CERVEZA EN LOS ALIMENTOS,06:00 A 03:00 DE LUNES A DOMIMGO,VICENTE VILLADA # 432 BARRIO DE SANTIAGUITO,19.2519212,-99.6036608
PIZZA HUT PABELLON METEPEC,Metepec,RESTAURANTE C/V DE CERVEZA EN LOS ALIMENTOS,06:00 A 03:00 DE LUNES A DOMIMGO,CARRETERA TOLUCA TENANGO # 505 NTE. EX-RANCHO SAN JAVIER,19.260845,-99.6299459
LAS CARNES DEL CALVARIO,Metepec,RESTAURANTE C/V DE CERVEZA EN LOS ALIMENTOS,06:00 A 03:00 DE LUNES A DOMIMGO,MIGUEL HIDALGO ESQ. ESTADO DE MÉXICO # 202 BARRIO DEL ESPÍRITU SANTO,19.2512322,-99.6059199
SERVICIOS ALIMENTICIOS MANE S.A. DE C.V.,Metepec,RESTAURANTE C/V DE CERVEZA EN LOS ALIMENTOS,06:00 A 03:00 DE LUNES A DOMIMGO,VIALIDAD METEPEC # 505-40 EX-RANCHO SAN JAVIER,19.2598634,-99.627828
EL BIFE TOREADO,Metepec,RESTAURANTE C/V DE CERVEZA EN LOS ALIMENTOS,06:00 A 03:00 DE LUNES A DOMIMGO,AV. TECNOLÓGICO # 220-A LLANO GRANDE,19.2574429,-99.5771271
GUIKEN,Metepec,RESTAURANTE C/V DE CERVEZA EN LOS ALIMENTOS,06:00 A 03:00 DE LUNES A DOMIMGO,5 DE MAYO # 74-B BARRIO DEL ESPÍRITU SANTO,19.2598036,-99.6036897
EL PORTON,Metepec,RESTAURANTE C/V DE CERVEZA EN LOS ALIMENTOS,06:00 A 03:00 DE LUNES A DOMIMGO,LEONA VICARIO # 502-B LA PURÍSIMA,19.2621542,-99.6022906
CHOPERIA CARVAJAL,Metepec,RESTAURANTE C/V DE CERVEZA EN LOS ALIMENTOS,06:00 A 03:00 DE LUNES A DOMIMGO,CIRCUITO METROPOLITANO EXTERIOR # 301 LÁZARO CÁRDENAS,19.2530877,-99.5530696
RESTAURANTES TOKS S.A. DE C.V.,Metepec,RESTAURANTE C/V DE CERVEZA EN LOS ALIMENTOS,06:00 A 03:00 DE LUNES A DOMIMGO,PLAZA LAS AMERICAS S/N LA PURÍSIMA,19.259459,-99.625201
WOW COFFE AND BEER,Metepec,RESTAURANTE C/V DE CERVEZA EN LOS ALIMENTOS,06:00 A 03:00 DE LUNES A DOMIMGO,LEONA VICARIO # 13-B LA PURÍSIMA,19.261482,-99.6222312
OPERADORA VIPS S. DE R. L. DE C. V.,Metepec,RESTAURANTE C/V DE CERVEZA EN LOS ALIMENTOS,06:00 A 03:00 DE LUNES A DOMIMGO,LEONA VICARIO # 502 LA PURÍSIMA,19.2621947,-99.6025588
LA VID,Metepec,RESTAURANTE C/V DE CERVEZA Y VINOS DE MESA EN LOS ALIMENTOS,06:00 A 03:00 DE LUNES A DOMIMGO,5 DE MAYO # 148   LOCAL  A BARRIO DE SANTIAGUITO,19.260201,-99.6037062
MARINA 303,Metepec,RESTAURANTE C/V DE CERVEZA Y VINOS DE MESA EN LOS ALIMENTOS,06:00 A 03:00 DE LUNES A DOMIMGO,AV. ESTADO DE MÉXICO # 1300 BARRIO DE SANTIAGUITO,19.2626882,-99.6216321
NAIA GOURMET RESTAURANTE,Metepec,RESTAURANTE C/V DE CERVEZA Y VINOS DE MESA EN LOS ALIMENTOS,06:00 A 03:00 DE LUNES A DOMIMGO,IGNACIO COMONFORT # 506 BARRIO DE SAN MATEO,19.2590154,-99.6079726
SUSHI  ITTO,Metepec,RESTAURANTE C/V DE CERVEZA Y VINOS DE MESA EN LOS ALIMENTOS,06:00 A 03:00 DE LUNES A DOMIMGO,AV. TECNOLÓGICO # 1316 SAN SALVADOR TIZATLALLI,19.2698213,-99.5760382
LA CABAÑA DE CHIHUAHUA,Metepec,RESTAURANTE C/V DE CERVEZA Y VINOS DE MESA EN LOS ALIMENTOS,06:00 A 03:00 DE LUNES A DOMIMGO,PASEO DE LOS CISNES # 4 FRANCISCO I. MADERO,19.279314,-99.5720716
COCINA DE BARRIO-CERVEZA ARTESANAL,Metepec,RESTAURANTE C/V DE CERVEZA Y VINOS DE MESA EN LOS ALIMENTOS,06:00 A 03:00 DE LUNES A DOMIMGO,VICENTE GUERRERO # 118 BARRIO DE SAN MATEO,19.2734829,-99.5806878
TOK'S  TECNOLÓGICO,Metepec,RESTAURANTE C/V DE CERVEZA Y VINOS DE MESA EN LOS ALIMENTOS,06:00 A 03:00 DE LUNES A DOMIMGO,AV. TECNOLÓGICO # 1600 SAN SALVADOR TIZATLALLI,19.2737632,-99.5747148
BE BOPS DINER,Metepec,RESTAURANTE C/V DE CERVEZA Y VINOS DE MESA EN LOS ALIMENTOS,06:00 A 03:00 DE LUNES A DOMIMGO,PASEO SAN ISIDRO # 400 BARRIO DE SANTA CRUZ,19.2528539,-99.6020734
LA CERVECERÍA DEL PUEBLO,Metepec,RESTAURANTE C/V DE CERVEZA Y VINOS DE MESA EN LOS ALIMENTOS,06:00 A 03:00 DE LUNES A DOMIMGO,AV. ESTADO DE MÉXICO # 225 BARRIO DEL ESPÍRITU SANTO,19.2499233,-99.6085028
SANATORIO,Metepec,SANATORIO,24:00 HORAS,AV. H. GALEANA # 34 SAN LUCAS TUNCO,19.2360219,-99.538398
TIENDAS DEPARTAMENTALES LIVERPOOL S.A. DE C.V.,Metepec,TIENDA DE AUTOSERVICIO,06:00 A 23:00 HORAS DE LUNES A DOMINGO,BOULEVARD TOLUCA IXTAPAN # 400 NTE. GALERÍAS METEPEC,19.2598047,-99.6198899
COSTCO METEPEC,Metepec,TIENDA DE AUTOSERVICIO,06:00 A 23:00 HORAS DE LUNES A DOMINGO,S.S. JUAN PABLO II # 501 LTE. 2-2 CABECERA MUNICIPAL,19.2585791,-99.6169448
MEGA COMERCIAL MEXICANA SUC. METEPEC,Metepec,TIENDA DE AUTOSERVICIO,06:00 A 23:00 HORAS DE LUNES A DOMINGO,S.S. JUAN PABLO II # 601 LT-2-1 BARRIO DE SAN MATEO,19.2594033,-99.6181867
HOME DEPOT MÉXICO S. DE R.L. DE C.V.,Metepec,TIENDA DE AUTOSERVICIO,06:00 A 23:00 HORAS DE LUNES A DOMINGO,BOULEVARD TOLUCA METEPEC ESQ. PASEO SAN ISIDRO # 2 NTE. BARRIO DE SANTA CRUZ,19.2538693,-99.6146368
SORIANA,Metepec,TIENDA DE AUTOSERVICIO,06:00 A 23:00 HORAS DE LUNES A DOMINGO,"HDA LA QUEMADA  ""PLAZA LA PILITA"" # 500 BARRIO DE SAN MATEO",19.2572764,-99.5977737
SUPER KOMPRAS LAS MARINAS,Metepec,TIENDA DE AUTOSERVICIO,06:00 A 23:00 HORAS DE LUNES A DOMINGO,MANUEL J. CLOUTHIER # 303 UNID. HAB. LAS MARINAS,19.27472,-99.593898
SUPER KOMPRAS GALERIAS,Metepec,TIENDA DE AUTOSERVICIO,06:00 A 23:00 HORAS DE LUNES A DOMINGO,LEONA VICARIO # 752 LA PURÍSIMA,19.2611811,-99.6213131
BODEGA AURRERA PILARES,Metepec,TIENDA DE AUTOSERVICIO,06:00 A 23:00 HORAS DE LUNES A DOMINGO,MANUEL J. CLOUTHIER # 97 BARRIO DE COAXUSTENCO,19.2696963,-99.5965782
SUPERAMA,Metepec,TIENDA DE AUTOSERVICIO,06:00 A 23:00 HORAS DE LUNES A DOMINGO,AV. TECNOLÓGICO # 1800 SAN SALVADOR TIZATLALLI,19.2682202,-99.5867855
SUPERAMA PROVIDENCIA,Metepec,TIENDA DE AUTOSERVICIO,06:00 A 23:00 HORAS DE LUNES A DOMINGO,IGNACIO COMONFORT # 654 LT-1 M-V1 NTE. LA PROVIDENCIA,19.2724333,-99.6011621
SERVICIO COMERCIAL GARIS S.A. DE C.V.,Metepec,TIENDA DE AUTOSERVICIO,06:00 A 23:00 HORAS DE LUNES A DOMINGO,CARRETERA  METEPEC  ZACANGO #  421 SAN JORGE PUEBLO NUEVO,19.2494125,-99.6191202
CHEDRAUI,Metepec,TIENDA DE AUTOSERVICIO,06:00 A 23:00 HORAS DE LUNES A DOMINGO,PROLONGACIÓN GUADALUPE VICTORIA # 601 NTE. LAS JARAS,19.2586358,-99.6282211
OFFICE MAX,Metepec,TIENDA DE AUTOSERVICIO,06:00 A 23:00 HORAS DE LUNES A DOMINGO,AV. LEONA VICARIO # 629 SAN FRANCISCO COAXUSCO,19.261584,-99.621197
SUPER KOMPRAS LA ASUNCIóN,Metepec,TIENDA DE AUTOSERVICIO,06:00 A 23:00 HORAS DE LUNES A DOMINGO,AV. TECNOLÓGICO # 73 FRACC. LA ASUNCIÓN,19.280633,-99.573599
"""SAM'S CLUB""",Metepec,TIENDA DE AUTOSERVICIO,06:00 A 23:00 HORAS DE LUNES A DOMINGO,LEONA VICARIO # 502 PTE. LA PURÍSIMA,19.2710693,-99.6438194
""" WAL MART METEPEC""",Metepec,TIENDA DE AUTOSERVICIO,06:00 A 23:00 HORAS DE LUNES A DOMINGO,LEONA VICARIO # 502 LA PURÍSIMA,19.260992,-99.6250761
SERVICIO COMERCIAL GARIS S.A. DE C.V.,Metepec,TIENDA DE AUTOSERVICIO,06:00 A 23:00 HORAS DE LUNES A DOMINGO,MANUEL J. CLOUTHIER # 701 SAN JERÓNIMO CHICAHUALCO,19.2786483,-99.5948665
SERVICIO COMERCIAL GARIS S.A. DE C.V.,Metepec,TIENDA DE AUTOSERVICIO,06:00 A 23:00 HORAS DE LUNES A DOMINGO,VIALIDAD TOLUCA METEPEC KM. 3.1. LA PURÍSIMA,19.2569483,-99.6249138
TIENDAS SORIANA SUC. METEPEC,Metepec,TIENDA DE AUTOSERVICIO,06:00 A 23:00 HORAS DE LUNES A DOMINGO,AV. GUADALUPE VICTORIA # 916 LA PURÍSIMA,19.2621433,-99.5989734
C&A,Metepec,TIENDA DEPARTAMENTAL,06:00 A 23:00 HORAS DE LUNES A DOMINGO,BOULEVARD TOLUCA IXTAPAN # 126-185 NTE. GALERÍAS METEPEC,19.257866,-99.620933
COPPEL LA PILITA,Metepec,TIENDA DEPARTAMENTAL,06:00 A 23:00 HORAS DE LUNES A DOMINGO,HDA. LA QUEMADA # 500 BARRIO DE SAN MATEO,19.258081,-99.5972565
SUBURBIA S. DE R. L. DE C. V.,Metepec,TIENDA DEPARTAMENTAL,06:00 A 23:00 HORAS DE LUNES A DOMINGO,LEONA VICARIO # 502 LA PURÍSIMA,19.259452,-99.622581
DESTILARTE,Metepec,TIENDA GOURMET,06:00 A 23:00 HORAS DE LUNES A DOMINGO,LEONA VICARIO # 813  LOCAL 21 BARRIO DE COAXUSTENCO,19.26116,-99.618864
GALAPAGOS,Metepec,TIENDA GOURMET,06:00 A 23:00 HORAS DE LUNES A DOMINGO,LEONA VICARIO # 813 BARRIO DE COAXUSTENCO,19.261193,-99.618728
LOS MILAGRITOS,Metepec,TIENDA GOURMET C/V BEBIDAS DE MODERACIÓN EN BOTELLA CERRADA,06:00 A 23:00 HORAS DE LUNES A DOMINGO,IGNACIO ZARAGOZA # 24-A BARRIO DEL ESPÍRITU SANTO,19.2512393,-99.6059879
DAY LIGHT SALADS,Metepec,VENTA DE ENSALADAS,06:00 A 23:00 HORAS DE LUNES A DOMINGO,VIALIDAD TOLUCA IXTAPAN # 400  LOCAL 511 BARRIO DE COAXUSTENCO,19.2502027,99.6133453
BLATT SALAT HAUS,Metepec,VENTA DE ENSALADAS,06:00 A 23:00 HORAS DE LUNES A DOMINGO,LEONA VICARIO # 386  LOC-10 C BARRIO DE COAXUSTENCO,19.261069,-99.617484
LAS CARBONAS,Metepec,VENTA DE HAMBURGUESAS,06:00 A 23:00 HORAS DE LUNES A DOMINGO,PASEO DE LA ASUNCION # 110 BELLAVISTA,19.265897,-99.572911
LA PAPA SIN CATSUP,Metepec,VENTA DE HAMBURGUESAS,06:00 A 23:00 HORAS DE LUNES A DOMINGO,NIÑOS HÉROES # 3 BARRIO DEL ESPÍRITU SANTO,19.251712,-99.604627